OBJECT_NAME,OBJECT_ID,EPOCH,MEAN_MOTION,ECCENTRICITY,INCLINATION,RA_OF_ASC_NODE,ARG_OF_PERICENTER,MEAN_ANOMALY,EPHEMERIS_TYPE,CLASSIFICATION_TYPE,NORAD_CAT_ID,ELEMENT_SET_NO,REV_AT_EPOCH,BSTAR,MEAN_MOTION_DOT,MEAN_MOTION_DDOT
STARLINK-4731,2022-107D,2026-04-16T05:20:36.067488,15.08838104,0.00015065,53.2167,75.3717,88.5122,271.6043,0,U,53703,999,20052,-0.00024010425,-4.107e-05,0.0
STARLINK-4714,2022-107E,2026-04-16T04:54:11.379168,15.08834953,0.00014002,53.2167,75.9658,90.0081,270.1072,0,U,53704,999,20035,3.862019e-06,-2.26e-06,0.0
STARLINK-4717,2022-107F,2026-04-16T04:48:53.071200,15.08836737,9.302e-05,53.2169,75.9428,73.9152,286.1943,0,U,53705,999,20051,4.70872e-07,-2.8e-06,0.0
STARLINK-4716,2022-107G,2026-04-16T04:27:39.348576,15.08840184,0.00014384,53.2169,75.8541,85.1318,274.9839,0,U,53706,999,20051,2.2319554e-05,6.7e-07,0.0
STARLINK-4667,2022-107H,2026-04-16T05:51:44.776800,15.0886312,6.457e-05,53.2179,60.5405,62.3384,297.7674,0,U,53707,999,20073,0.00014159242,1.968e-05,0.0
STARLINK-4694,2022-107J,2026-04-16T03:55:09.902784,15.08836947,0.00012756,53.2172,60.7586,81.7137,278.4,0,U,53708,999,20072,1.7002879e-05,-1.7e-07,0.0
STARLINK-4685,2022-107K,2026-04-16T05:11:58.377696,15.0883126,0.00014526,53.2169,80.3501,76.99,283.1255,0,U,53709,999,20014,-7.9164327e-05,-1.547e-05,0.0
STARLINK-4627,2022-107M,2026-04-16T05:27:53.792352,15.08829439,0.00014236,53.2176,80.409,80.3534,279.7619,0,U,53711,999,20014,7.0881936e-05,8.4e-06,0.0
STARLINK-4683,2022-107N,2026-04-16T04:50:45.331584,15.08837983,0.00014206,53.2165,80.2658,91.0726,269.0429,0,U,53712,999,20016,-1.979591e-05,-6.03e-06,0.0
STARLINK-4686,2022-107R,2026-04-16T02:08:28.538016,15.08844066,0.00016269,53.2171,85.9417,97.8076,262.3101,0,U,53715,999,20006,6.726342e-05,7.83e-06,0.0
STARLINK-4699,2022-107S,2026-04-16T05:13:57.620928,15.08834426,0.00016853,53.2167,85.3254,83.3209,276.7975,0,U,53716,999,20007,3.6460458e-05,2.92e-06,0.0
STARLINK-4695,2022-107U,2026-04-16T04:59:34.534176,15.08826178,5.474e-05,53.2209,85.9548,119.3236,240.7811,0,U,53718,999,20006,-5.9956326e-05,-1.241e-05,0.0
STARLINK-4644,2022-107V,2026-04-16T06:37:25.016736,15.08836935,0.00015766,53.2188,55.0114,91.1761,268.9412,0,U,53719,999,20051,2.6208e-07,-2.84e-06,0.0
STARLINK-4642,2022-107W,2026-04-16T05:24:35.379072,15.08841118,0.00012942,53.2167,85.3716,74.3212,285.7923,0,U,53720,999,20008,6.7540424e-05,7.87e-06,0.0
STARLINK-4707,2022-107X,2026-04-16T05:35:11.259744,15.08842176,0.00013087,53.2168,85.4192,85.7501,274.3641,0,U,53721,999,20008,-7.2105399e-05,-1.435e-05,0.0
STARLINK-4700,2022-107Y,2026-04-16T05:45:47.740032,15.08837424,0.00013726,53.2149,85.4587,77.5652,282.5494,0,U,53722,999,20007,1.5933351e-05,-3.4e-07,0.0
STARLINK-4705,2022-107Z,2026-04-16T05:08:39.230880,15.0883982,0.00014005,53.2166,85.3098,83.6619,276.4533,0,U,53723,999,20022,4.6076678e-05,4.45e-06,0.0
STARLINK-4663,2022-107AA,2026-04-16T05:29:54.961440,15.08797318,0.00011803,53.2176,85.3978,94.2289,265.8838,0,U,53724,999,20008,0.00066128556,0.0001024,0.0
STARLINK-4697,2022-107AC,2026-04-16T05:40:30.371232,15.08833598,0.00013813,53.2167,85.4405,83.952,276.163,0,U,53726,999,20008,7.1232545e-05,8.46e-06,0.0
STARLINK-4701,2022-107AD,2026-04-16T04:21:01.486080,15.08887352,0.00011923,53.2168,85.8063,100.1401,259.9726,0,U,53727,999,20021,-0.00086010012,-0.00013968,0.0
STARLINK-4640,2022-107AE,2026-04-16T05:51:06.631200,15.08833305,0.0001417,53.2171,85.486,85.8399,274.2755,0,U,53728,999,20022,4.312159e-06,-2.19e-06,0.0
STARLINK-4651,2022-107AF,2026-04-16T06:12:20.055744,15.0883477,0.00012449,53.2166,85.5763,84.18,275.9334,0,U,53729,999,20025,9.325492e-06,-1.39e-06,0.0
STARLINK-4641,2022-107AG,2026-04-16T04:26:21.534144,15.08836182,0.00013931,53.2171,85.8283,75.5919,284.5227,0,U,53730,999,20021,4.9885347e-05,5.06e-06,0.0
STARLINK-4636,2022-107AH,2026-04-16T05:31:04.499616,15.13428026,0.00027474,53.2147,84.0013,309.0213,51.0537,0,U,53731,999,20027,0.00091167287,0.00016213,0.0
STARLINK-4661,2022-107AJ,2026-04-16T06:08:24.448128,15.08832452,0.00012613,53.2182,85.5573,58.7197,301.3918,0,U,53732,999,20022,8.9081567e-05,1.13e-05,0.0
STARLINK-4574,2022-107AK,2026-04-16T04:52:52.203936,15.08839536,0.0001278,53.2162,85.9434,89.8424,270.2714,0,U,53733,999,20024,5.2160007e-05,5.42e-06,0.0
STARLINK-4616,2022-107AL,2026-04-16T06:07:01.764192,15.08844146,0.00014114,53.2167,85.5552,80.343,279.7721,0,U,53734,999,20025,3.01639e-06,-2.4e-06,0.0
STARLINK-4618,2022-107AM,2026-04-16T05:33:51.511680,15.08840232,0.00015517,53.2167,95.4002,80.5232,279.5936,0,U,53735,999,20011,-8.018403e-06,-4.16e-06,0.0
STARLINK-4652,2022-107AN,2026-04-16T06:22:56.809056,15.08837323,0.00013709,53.2172,85.6226,84.7215,275.3934,0,U,53736,999,20025,1.7073095e-05,-1.6e-07,0.0
STARLINK-4662,2022-107AQ,2026-04-16T05:28:32.650752,15.08831569,9.674e-05,53.2211,95.376,95.3319,264.7784,0,U,53738,999,20011,-5.6797884e-05,-1.191e-05,0.0
STARLINK-4607,2022-107AS,2026-04-16T02:33:41.725152,15.08839198,0.00013591,53.2158,96.0399,88.6725,271.4423,0,U,53740,999,20024,1.8075076e-05,0.0,0.0
STARLINK-4637,2022-107AU,2026-04-16T05:49:47.500032,15.08834745,0.00015022,53.218,95.4678,83.429,276.6873,0,U,53742,999,20026,1.153842e-06,-2.7e-06,0.0
STARLINK-4645,2022-107AV,2026-04-16T06:11:00.055392,15.08842244,0.00015171,53.2162,95.5598,75.4972,284.6188,0,U,53743,999,20026,-3.6709723e-05,-8.72e-06,0.0
STARLINK-4670,2022-107AW,2026-04-15T22:45:47.346624,15.08834942,0.00010184,53.2159,96.4809,78.2725,281.8381,0,U,53744,999,20022,2.5145436e-05,1.12e-06,0.0
STARLINK-4656,2022-107AX,2026-04-16T06:16:18.924096,15.08842925,9.544e-05,53.2157,95.5826,52.4747,307.6332,0,U,53745,999,20026,4.6977648e-05,4.6e-06,0.0
STARLINK-4589,2022-107AY,2026-04-16T06:05:41.464896,15.08843058,0.00012856,53.216,95.5369,79.9589,280.1548,0,U,53746,999,20026,3.6985857e-05,3.01e-06,0.0
STARLINK-4612,2022-107BC,2026-04-16T06:26:55.268736,15.08838388,0.00015435,53.2163,95.6288,76.3762,283.7402,0,U,53750,999,20027,-8.602164e-06,-4.25e-06,0.0
STARLINK-4718,2022-111A,2026-04-16T07:01:20.294400,15.08838619,9.442e-05,53.2157,115.2367,91.1244,268.9857,0,U,53773,999,19952,5.7411245e-05,6.26e-06,0.0
STARLINK-4719,2022-111B,2026-04-16T06:56:00.727584,15.08836372,0.0001337,53.2154,115.2148,73.7811,286.3329,0,U,53774,999,19938,1.4338062e-05,-6e-07,0.0
STARLINK-4722,2022-111C,2026-04-16T06:04:24.336480,15.08837055,0.00012692,53.2165,105.726,86.6775,273.4363,0,U,53775,999,19936,3.7910369e-05,3.15e-06,0.0
STARLINK-4664,2022-111E,2026-04-16T04:18:24.507648,15.08834458,0.00012751,53.2154,105.9765,81.7765,278.3372,0,U,53777,999,19935,1.0277965e-05,-1.24e-06,0.0
STARLINK-4709,2022-111F,2026-04-16T06:32:49.001568,15.08830475,0.00012518,53.2157,110.1303,86.1673,273.9462,0,U,53778,999,19930,4.4355167e-05,4.18e-06,0.0
STARLINK-4706,2022-111G,2026-04-15T23:26:56.362272,15.08843921,0.0001258,53.216,106.8464,81.0432,279.0702,0,U,53779,999,19932,-9.9818607e-05,-1.876e-05,0.0
STARLINK-4678,2022-111H,2026-04-16T05:59:06.230688,15.08834191,0.00012395,53.2155,105.702,82.9579,277.1554,0,U,53780,999,19936,-8.494371e-06,-4.23e-06,0.0
STARLINK-4462,2022-111J,2026-04-16T07:07:57.552960,15.08817992,0.00012396,53.2165,105.2923,84.932,275.1813,0,U,53781,999,19937,5.2360873e-05,5.45e-06,0.0
STARLINK-4679,2022-111K,2026-04-16T06:00:02.000160,15.40635485,0.00015444,53.2169,101.7913,79.0142,139.972,0,U,53782,999,581,0.0018265498,0.00075897,0.0
STARLINK-4536,2022-111L,2026-04-16T06:57:21.497760,15.08831643,0.00011182,53.2168,105.2432,85.292,274.82,0,U,53783,999,19937,4.081094e-05,3.62e-06,0.0
STARLINK-4687,2022-111M,2026-04-16T07:13:15.828096,15.08847195,0.00014604,53.2177,105.3144,83.5556,276.5602,0,U,53784,999,19937,6.868605e-05,8.06e-06,0.0
STARLINK-4743,2022-111Q,2026-04-16T00:25:11.996544,15.08834593,0.00015521,53.2161,106.3886,88.4872,271.6298,0,U,53787,999,19933,6.6486544e-05,7.7e-06,0.0
STARLINK-4666,2022-111S,2026-04-16T06:30:49.703040,15.0885301,0.00016026,53.2153,105.1315,87.2303,272.8873,0,U,53789,999,19936,0.0003278567,4.936e-05,0.0
STARLINK-4734,2022-111T,2026-04-16T06:52:02.095968,15.08838408,0.00011837,53.2159,105.2218,73.6288,286.4834,0,U,53790,999,19937,8.90009e-06,-1.46e-06,0.0
STARLINK-4739,2022-111V,2026-04-16T06:21:41.605632,15.08840009,0.00013083,53.2158,105.7877,82.3331,277.781,0,U,53792,999,19935,2.4987524e-05,1.1e-06,0.0
STARLINK-4728,2022-111W,2026-04-16T06:41:24.984960,15.08838289,0.00013161,53.2161,105.174,83.1285,276.9857,0,U,53793,999,19936,1.187155e-05,-9.9e-07,0.0
STARLINK-4730,2022-111X,2026-04-16T06:48:06.195456,15.0883796,0.0001302,53.216,105.2028,83.895,276.2191,0,U,53794,999,19936,-1.4870166e-05,-5.25e-06,0.0
STARLINK-4742,2022-111Y,2026-04-16T06:25:29.716320,15.08841743,0.00013098,53.2158,105.1087,79.6317,280.4822,0,U,53795,999,19936,3.0397052e-05,1.96e-06,0.0
STARLINK-4723,2022-111AA,2026-04-16T06:09:34.966080,15.08832246,0.00012374,53.2167,105.0392,83.2455,276.8678,0,U,53797,999,19935,2.9643828e-05,1.84e-06,0.0
STARLINK-4712,2022-111AB,2026-04-16T06:14:54.232224,15.08838181,0.00012214,53.2162,105.0619,84.2438,275.8693,0,U,53798,999,19935,5.2884912e-05,5.54e-06,0.0
STARLINK-4710,2022-111AC,2026-04-16T05:40:34.744800,15.08841173,0.00012842,53.2158,95.6364,71.26,288.8531,0,U,53799,999,19948,5.1953776e-05,5.39e-06,0.0
STARLINK-4720,2022-111AD,2026-04-16T06:33:05.096160,15.5544483,0.00014547,53.2106,59.1069,16.254,343.8519,0,U,53800,999,20000,0.00037496334,0.00025611,0.0
STARLINK-4715,2022-111AE,2026-04-16T06:32:08.484288,15.08834832,0.00016544,53.216,95.1532,92.0384,268.0798,0,U,53801,999,19949,3.48232e-05,2.66e-06,0.0
STARLINK-4726,2022-111AF,2026-04-16T06:48:04.051872,15.08832168,0.00012615,53.2164,95.221,83.3934,276.7201,0,U,53802,999,19949,1.510509e-06,-2.64e-06,0.0
STARLINK-4727,2022-111AG,2026-04-16T02:22:27.806880,15.08835901,0.00013693,53.2168,81.2283,88.244,271.8709,0,U,53803,999,19967,4.3920918e-05,4.11e-06,0.0
STARLINK-4729,2022-111AH,2026-04-16T06:36:50.045472,15.08837228,0.00012332,53.2175,90.1727,70.137,289.9755,0,U,53804,999,19956,1.9887252e-05,2.9e-07,0.0
